{"type": "FeatureCollection", "features": [{"type": "Feature", "geometry": {"type": "Polygon", "coordinates": [[[30.0590102, -1.9509893], [30.0591901, -1.9509893], [30.0591901, -1.9508094], [30.0590102, -1.9508094], [30.0590102, -1.9509893]]]}, "properties": {"kind": "scouting_priority_cell", "priority": 0.1629, "row": -5, "col": -5}}, {"type": "Feature", "geometry": {"type": "Polygon", "coordinates": [[[30.0591901, -1.9509893], [30.0593701, -1.9509893], [30.0593701, -1.9508094], [30.0591901, -1.9508094], [30.0591901, -1.9509893]]]}, "properties": {"kind": "scouting_priority_cell", "priority": 0.1762, "row": -5, "col": -4}}, {"type": "Feature", "geometry": {"type": "Polygon", "coordinates": [[[30.0593701, -1.9509893], [30.0595501, -1.9509893], [30.0595501, -1.9508094], [30.0593701, -1.9508094], [30.0593701, -1.9509893]]]}, "properties": {"kind": "scouting_priority_cell", "priority": 0.177, "row": -5, "col": -3}}, {"type": "Feature", "geometry": {"type": "Polygon", "coordinates": [[[30.0595501, -1.9509893], [30.05973, -1.9509893], [30.05973, -1.9508094], [30.0595501, -1.9508094], [30.0595501, -1.9509893]]]}, "properties": {"kind": "scouting_priority_cell", "priority": 0.165, "row": -5, "col": -2}}, {"type": "Feature", "geometry": {"type": "Polygon", "coordinates": [[[30.05973, -1.9509893], [30.05991, -1.9509893], [30.05991, -1.9508094], [30.05973, -1.9508094], [30.05973, -1.9509893]]]}, "properties": {"kind": "scouting_priority_cell", "priority": 0.144, "row": -5, "col": -1}}, {"type": "Feature", "geometry": {"type": "Polygon", "coordinates": [[[30.05991, -1.9509893], [30.06009, -1.9509893], [30.06009, -1.9508094], [30.05991, -1.9508094], [30.05991, -1.9509893]]]}, "properties": {"kind": "scouting_priority_cell", "priority": 0.1191, "row": -5, "col": 0}}, {"type": "Feature", "geometry": {"type": "Polygon", "coordinates": [[[30.06009, -1.9509893], [30.06027, -1.9509893], [30.06027, -1.9508094], [30.06009, -1.9508094], [30.06009, -1.9509893]]]}, "properties": {"kind": "scouting_priority_cell", "priority": 0.0945, "row": -5, "col": 1}}, {"type": "Feature", "geometry": {"type": "Polygon", "coordinates": [[[30.06027, -1.9509893], [30.0604499, -1.9509893], [30.0604499, -1.9508094], [30.06027, -1.9508094], [30.06027, -1.9509893]]]}, "properties": {"kind": "scouting_priority_cell", "priority": 0.0728, "row": -5, "col": 2}}, {"type": "Feature", "geometry": {"type": "Polygon", "coordinates": [[[30.0604499, -1.9509893], [30.0606299, -1.9509893], [30.0606299, -1.9508094], [30.0604499, -1.9508094], [30.0604499, -1.9509893]]]}, "properties": {"kind": "scouting_priority_cell", "priority": 0.0549, "row": -5, "col": 3}}, {"type": "Feature", "geometry": {"type": "Polygon", "coordinates": [[[30.0606299, -1.9509893], [30.0608099, -1.9509893], [30.0608099, -1.9508094], [30.0606299, -1.9508094], [30.0606299, -1.9509893]]]}, "properties": {"kind": "scouting_priority_cell", "priority": 0.0407, "row": -5, "col": 4}}, {"type": "Feature", "geometry": {"type": "Polygon", "coordinates": [[[30.0608099, -1.9509893], [30.0609898, -1.9509893], [30.0609898, -1.9508094], [30.0608099, -1.9508094], [30.0608099, -1.9509893]]]}, "properties": {"kind": "scouting_priority_cell", "priority": 0.0291, "row": -5, "col": 5}}, {"type": "Feature", "geometry": {"type": "Polygon", "coordinates": [[[30.0590102, -1.9508094], [30.0591901, -1.9508094], [30.0591901, -1.9506295], [30.0590102, -1.9506295], [30.0590102, -1.9508094]]]}, "properties": {"kind": "scouting_priority_cell", "priority": 0.2015, "row": -4, "col": -5}}, {"type": "Feature", "geometry": {"type": "Polygon", "coordinates": [[[30.0591901, -1.9508094], [30.0593701, -1.9508094], [30.0593701, -1.9506295], [30.0591901, -1.9506295], [30.0591901, -1.9508094]]]}, "properties": {"kind": "scouting_priority_cell", "priority": 0.2341, "row": -4, "col": -4}}, {"type": "Feature", "geometry": {"type": "Polygon", "coordinates": [[[30.0593701, -1.9508094], [30.0595501, -1.9508094], [30.0595501, -1.9506295], [30.0593701, -1.9506295], [30.0593701, -1.9508094]]]}, "properties": {"kind": "scouting_priority_cell", "priority": 0.2509, "row": -4, "col": -3}}, {"type": "Feature", "geometry": {"type": "Polygon", "coordinates": [[[30.0595501, -1.9508094], [30.05973, -1.9508094], [30.05973, -1.9506295], [30.0595501, -1.9506295], [30.0595501, -1.9508094]]]}, "properties": {"kind": "scouting_priority_cell", "priority": 0.245, "row": -4, "col": -2}}, {"type": "Feature", "geometry": {"type": "Polygon", "coordinates": [[[30.05973, -1.9508094], [30.05991, -1.9508094], [30.05991, -1.9506295], [30.05973, -1.9506295], [30.05973, -1.9508094]]]}, "properties": {"kind": "scouting_priority_cell", "priority": 0.219, "row": -4, "col": -1}}, {"type": "Feature", "geometry": {"type": "Polygon", "coordinates": [[[30.05991, -1.9508094], [30.06009, -1.9508094], [30.06009, -1.9506295], [30.05991, -1.9506295], [30.05991, -1.9508094]]]}, "properties": {"kind": "scouting_priority_cell", "priority": 0.1822, "row": -4, "col": 0}}, {"type": "Feature", "geometry": {"type": "Polygon", "coordinates": [[[30.06009, -1.9508094], [30.06027, -1.9508094], [30.06027, -1.9506295], [30.06009, -1.9506295], [30.06009, -1.9508094]]]}, "properties": {"kind": "scouting_priority_cell", "priority": 0.1441, "row": -4, "col": 1}}, {"type": "Feature", "geometry": {"type": "Polygon", "coordinates": [[[30.06027, -1.9508094], [30.0604499, -1.9508094], [30.0604499, -1.9506295], [30.06027, -1.9506295], [30.06027, -1.9508094]]]}, "properties": {"kind": "scouting_priority_cell", "priority": 0.1101, "row": -4, "col": 2}}, {"type": "Feature", "geometry": {"type": "Polygon", "coordinates": [[[30.0604499, -1.9508094], [30.0606299, -1.9508094], [30.0606299, -1.9506295], [30.0604499, -1.9506295], [30.0604499, -1.9508094]]]}, "properties": {"kind": "scouting_priority_cell", "priority": 0.0821, "row": -4, "col": 3}}, {"type": "Feature", "geometry": {"type": "Polygon", "coordinates": [[[30.0606299, -1.9508094], [30.0608099, -1.9508094], [30.0608099, -1.9506295], [30.0606299, -1.9506295], [30.0606299, -1.9508094]]]}, "properties": {"kind": "scouting_priority_cell", "priority": 0.0591, "row": -4, "col": 4}}, {"type": "Feature", "geometry": {"type": "Polygon", "coordinates": [[[30.0608099, -1.9508094], [30.0609898, -1.9508094], [30.0609898, -1.9506295], [30.0608099, -1.9506295], [30.0608099, -1.9508094]]]}, "properties": {"kind": "scouting_priority_cell", "priority": 0.0407, "row": -4, "col": 5}}, {"type": "Feature", "geometry": {"type": "Polygon", "coordinates": [[[30.0590102, -1.9506295], [30.0591901, -1.9506295], [30.0591901, -1.9504497], [30.0590102, -1.9504497], [30.0590102, -1.9506295]]]}, "properties": {"kind": "scouting_priority_cell", "priority": 0.2267, "row": -3, "col": -5}}, {"type": "Feature", "geometry": {"type": "Polygon", "coordinates": [[[30.0591901, -1.9506295], [30.0593701, -1.9506295], [30.0593701, -1.9504497], [30.0591901, -1.9504497], [30.0591901, -1.9506295]]]}, "properties": {"kind": "scouting_priority_cell", "priority": 0.2865, "row": -3, "col": -4}}, {"type": "Feature", "geometry": {"type": "Polygon", "coordinates": [[[30.0593701, -1.9506295], [30.0595501, -1.9506295], [30.0595501, -1.9504497], [30.0593701, -1.9504497], [30.0593701, -1.9506295]]]}, "properties": {"kind": "scouting_priority_cell", "priority": 0.3366, "row": -3, "col": -3}}, {"type": "Feature", "geometry": {"type": "Polygon", "coordinates": [[[30.0595501, -1.9506295], [30.05973, -1.9506295], [30.05973, -1.9504497], [30.0595501, -1.9504497], [30.0595501, -1.9506295]]]}, "properties": {"kind": "scouting_priority_cell", "priority": 0.3552, "row": -3, "col": -2}}, {"type": "Feature", "geometry": {"type": "Polygon", "coordinates": [[[30.05973, -1.9506295], [30.05991, -1.9506295], [30.05991, -1.9504497], [30.05973, -1.9504497], [30.05973, -1.9506295]]]}, "properties": {"kind": "scouting_priority_cell", "priority": 0.3315, "row": -3, "col": -1}}, {"type": "Feature", "geometry": {"type": "Polygon", "coordinates": [[[30.05991, -1.9506295], [30.06009, -1.9506295], [30.06009, -1.9504497], [30.05991, -1.9504497], [30.05991, -1.9506295]]]}, "properties": {"kind": "scouting_priority_cell", "priority": 0.2789, "row": -3, "col": 0}}, {"type": "Feature", "geometry": {"type": "Polygon", "coordinates": [[[30.06009, -1.9506295], [30.06027, -1.9506295], [30.06027, -1.9504497], [30.06009, -1.9504497], [30.06009, -1.9506295]]]}, "properties": {"kind": "scouting_priority_cell", "priority": 0.2192, "row": -3, "col": 1}}, {"type": "Feature", "geometry": {"type": "Polygon", "coordinates": [[[30.06027, -1.9506295], [30.0604499, -1.9506295], [30.0604499, -1.9504497], [30.06027, -1.9504497], [30.06027, -1.9506295]]]}, "properties": {"kind": "scouting_priority_cell", "priority": 0.1653, "row": -3, "col": 2}}, {"type": "Feature", "geometry": {"type": "Polygon", "coordinates": [[[30.0604499, -1.9506295], [30.0606299, -1.9506295], [30.0606299, -1.9504497], [30.0604499, -1.9504497], [30.0604499, -1.9506295]]]}, "properties": {"kind": "scouting_priority_cell", "priority": 0.1199, "row": -3, "col": 3}}, {"type": "Feature", "geometry": {"type": "Polygon", "coordinates": [[[30.0606299, -1.9506295], [30.0608099, -1.9506295], [30.0608099, -1.9504497], [30.0606299, -1.9504497], [30.0606299, -1.9506295]]]}, "properties": {"kind": "scouting_priority_cell", "priority": 0.0821, "row": -3, "col": 4}}, {"type": "Feature", "geometry": {"type": "Polygon", "coordinates": [[[30.0608099, -1.9506295], [30.0609898, -1.9506295], [30.0609898, -1.9504497], [30.0608099, -1.9504497], [30.0608099, -1.9506295]]]}, "properties": {"kind": "scouting_priority_cell", "priority": 0.0542, "row": -3, "col": 5}}, {"type": "Feature", "geometry": {"type": "Polygon", "coordinates": [[[30.0590102, -1.9504497], [30.0591901, -1.9504497], [30.0591901, -1.9502698], [30.0590102, -1.9502698], [30.0590102, -1.9504497]]]}, "properties": {"kind": "scouting_priority_cell", "priority": 0.2268, "row": -2, "col": -5}}, {"type": "Feature", "geometry": {"type": "Polygon", "coordinates": [[[30.0591901, -1.9504497], [30.0593701, -1.9504497], [30.0593701, -1.9502698], [30.0591901, -1.9502698], [30.0591901, -1.9504497]]]}, "properties": {"kind": "scouting_priority_cell", "priority": 0.3089, "row": -2, "col": -4}}, {"type": "Feature", "geometry": {"type": "Polygon", "coordinates": [[[30.0593701, -1.9504497], [30.0595501, -1.9504497], [30.0595501, -1.9502698], [30.0593701, -1.9502698], [30.0593701, -1.9504497]]]}, "properties": {"kind": "scouting_priority_cell", "priority": 0.4038, "row": -2, "col": -3}}, {"type": "Feature", "geometry": {"type": "Polygon", "coordinates": [[[30.0595501, -1.9504497], [30.05973, -1.9504497], [30.05973, -1.9502698], [30.0595501, -1.9502698], [30.0595501, -1.9504497]]]}, "properties": {"kind": "scouting_priority_cell", "priority": 0.4839, "row": -2, "col": -2}}, {"type": "Feature", "geometry": {"type": "Polygon", "coordinates": [[[30.05973, -1.9504497], [30.05991, -1.9504497], [30.05991, -1.9502698], [30.05973, -1.9502698], [30.05973, -1.9504497]]]}, "properties": {"kind": "scouting_priority_cell", "priority": 0.495, "row": -2, "col": -1}}, {"type": "Feature", "geometry": {"type": "Polygon", "coordinates": [[[30.05991, -1.9504497], [30.06009, -1.9504497], [30.06009, -1.9502698], [30.05991, -1.9502698], [30.05991, -1.9504497]]]}, "properties": {"kind": "scouting_priority_cell", "priority": 0.4269, "row": -2, "col": 0}}, {"type": "Feature", "geometry": {"type": "Polygon", "coordinates": [[[30.06009, -1.9504497], [30.06027, -1.9504497], [30.06027, -1.9502698], [30.06009, -1.9502698], [30.06009, -1.9504497]]]}, "properties": {"kind": "scouting_priority_cell", "priority": 0.3317, "row": -2, "col": 1}}, {"type": "Feature", "geometry": {"type": "Polygon", "coordinates": [[[30.06027, -1.9504497], [30.0604499, -1.9504497], [30.0604499, -1.9502698], [30.06027, -1.9502698], [30.06027, -1.9504497]]]}, "properties": {"kind": "scouting_priority_cell", "priority": 0.2431, "row": -2, "col": 2}}, {"type": "Feature", "geometry": {"type": "Polygon", "coordinates": [[[30.0604499, -1.9504497], [30.0606299, -1.9504497], [30.0606299, -1.9502698], [30.0604499, -1.9502698], [30.0604499, -1.9504497]]]}, "properties": {"kind": "scouting_priority_cell", "priority": 0.1648, "row": -2, "col": 3}}, {"type": "Feature", "geometry": {"type": "Polygon", "coordinates": [[[30.0606299, -1.9504497], [30.0608099, -1.9504497], [30.0608099, -1.9502698], [30.0606299, -1.9502698], [30.0606299, -1.9504497]]]}, "properties": {"kind": "scouting_priority_cell", "priority": 0.1069, "row": -2, "col": 4}}, {"type": "Feature", "geometry": {"type": "Polygon", "coordinates": [[[30.0608099, -1.9504497], [30.0609898, -1.9504497], [30.0609898, -1.9502698], [30.0608099, -1.9502698], [30.0608099, -1.9504497]]]}, "properties": {"kind": "scouting_priority_cell", "priority": 0.0677, "row": -2, "col": 5}}, {"type": "Feature", "geometry": {"type": "Polygon", "coordinates": [[[30.0590102, -1.9502698], [30.0591901, -1.9502698], [30.0591901, -1.9500899], [30.0590102, -1.9500899], [30.0590102, -1.9502698]]]}, "properties": {"kind": "scouting_priority_cell", "priority": 0.2018, "row": -1, "col": -5}}, {"type": "Feature", "geometry": {"type": "Polygon", "coordinates": [[[30.0591901, -1.9502698], [30.0593701, -1.9502698], [30.0593701, -1.9500899], [30.0591901, -1.9500899], [30.0591901, -1.9502698]]]}, "properties": {"kind": "scouting_priority_cell", "priority": 0.2868, "row": -1, "col": -4}}, {"type": "Feature", "geometry": {"type": "Polygon", "coordinates": [[[30.0593701, -1.9502698], [30.0595501, -1.9502698], [30.0595501, -1.9500899], [30.0593701, -1.9500899], [30.0593701, -1.9502698]]]}, "properties": {"kind": "scouting_priority_cell", "priority": 0.4041, "row": -1, "col": -3}}, {"type": "Feature", "geometry": {"type": "Polygon", "coordinates": [[[30.0595501, -1.9502698], [30.05973, -1.9502698], [30.05973, -1.9500899], [30.0595501, -1.9500899], [30.0595501, -1.9502698]]]}, "properties": {"kind": "scouting_priority_cell", "priority": 0.5558, "row": -1, "col": -2}}, {"type": "Feature", "geometry": {"type": "Polygon", "coordinates": [[[30.05973, -1.9502698], [30.05991, -1.9502698], [30.05991, -1.9500899], [30.05973, -1.9500899], [30.05973, -1.9502698]]]}, "properties": {"kind": "scouting_priority_cell", "priority": 0.6956, "row": -1, "col": -1}}, {"type": "Feature", "geometry": {"type": "Polygon", "coordinates": [[[30.05991, -1.9502698], [30.06009, -1.9502698], [30.06009, -1.9500899], [30.05991, -1.9500899], [30.05991, -1.9502698]]]}, "properties": {"kind": "scouting_priority_cell", "priority": 0.6534, "row": -1, "col": 0}}, {"type": "Feature", "geometry": {"type": "Polygon", "coordinates": [[[30.06009, -1.9502698], [30.06027, -1.9502698], [30.06027, -1.9500899], [30.06009, -1.9500899], [30.06009, -1.9502698]]]}, "properties": {"kind": "scouting_priority_cell", "priority": 0.4931, "row": -1, "col": 1}}, {"type": "Feature", "geometry": {"type": "Polygon", "coordinates": [[[30.06027, -1.9502698], [30.0604499, -1.9502698], [30.0604499, -1.9500899], [30.06027, -1.9500899], [30.06027, -1.9502698]]]}, "properties": {"kind": "scouting_priority_cell", "priority": 0.3269, "row": -1, "col": 2}}, {"type": "Feature", "geometry": {"type": "Polygon", "coordinates": [[[30.0604499, -1.9502698], [30.0606299, -1.9502698], [30.0606299, -1.9500899], [30.0604499, -1.9500899], [30.0604499, -1.9502698]]]}, "properties": {"kind": "scouting_priority_cell", "priority": 0.2057, "row": -1, "col": 3}}, {"type": "Feature", "geometry": {"type": "Polygon", "coordinates": [[[30.0606299, -1.9502698], [30.0608099, -1.9502698], [30.0608099, -1.9500899], [30.0606299, -1.9500899], [30.0606299, -1.9502698]]]}, "properties": {"kind": "scouting_priority_cell", "priority": 0.1273, "row": -1, "col": 4}}, {"type": "Feature", "geometry": {"type": "Polygon", "coordinates": [[[30.0608099, -1.9502698], [30.0609898, -1.9502698], [30.0609898, -1.9500899], [30.0608099, -1.9500899], [30.0608099, -1.9502698]]]}, "properties": {"kind": "scouting_priority_cell", "priority": 0.0781, "row": -1, "col": 5}}, {"type": "Feature", "geometry": {"type": "Polygon", "coordinates": [[[30.0590102, -1.9500899], [30.0591901, -1.9500899], [30.0591901, -1.9499101], [30.0590102, -1.9499101], [30.0590102, -1.9500899]]]}, "properties": {"kind": "scouting_priority_cell", "priority": 0.1633, "row": 0, "col": -5}}, {"type": "Feature", "geometry": {"type": "Polygon", "coordinates": [[[30.0591901, -1.9500899], [30.0593701, -1.9500899], [30.0593701, -1.9499101], [30.0591901, -1.9499101], [30.0591901, -1.9500899]]]}, "properties": {"kind": "scouting_priority_cell", "priority": 0.2346, "row": 0, "col": -4}}, {"type": "Feature", "geometry": {"type": "Polygon", "coordinates": [[[30.0593701, -1.9500899], [30.0595501, -1.9500899], [30.0595501, -1.9499101], [30.0593701, -1.9499101], [30.0593701, -1.9500899]]]}, "properties": {"kind": "scouting_priority_cell", "priority": 0.3371, "row": 0, "col": -3}}, {"type": "Feature", "geometry": {"type": "Polygon", "coordinates": [[[30.0595501, -1.9500899], [30.05973, -1.9500899], [30.05973, -1.9499101], [30.0595501, -1.9499101], [30.0595501, -1.9500899]]]}, "properties": {"kind": "scouting_priority_cell", "priority": 0.4844, "row": 0, "col": -2}}, {"type": "Feature", "geometry": {"type": "Polygon", "coordinates": [[[30.05973, -1.9500899], [30.05991, -1.9500899], [30.05991, -1.9499101], [30.05973, -1.9499101], [30.05973, -1.9500899]]]}, "properties": {"kind": "scouting_priority_cell", "priority": 0.696, "row": 0, "col": -1}}, {"type": "Feature", "geometry": {"type": "Polygon", "coordinates": [[[30.05991, -1.9500899], [30.06009, -1.9500899], [30.06009, -1.9499101], [30.05991, -1.9499101], [30.05991, -1.9500899]]]}, "properties": {"kind": "scouting_priority_cell", "priority": 1.0, "row": 0, "col": 0}}, {"type": "Feature", "geometry": {"type": "Polygon", "coordinates": [[[30.06009, -1.9500899], [30.06027, -1.9500899], [30.06027, -1.9499101], [30.06009, -1.9499101], [30.06009, -1.9500899]]]}, "properties": {"kind": "scouting_priority_cell", "priority": 0.6065, "row": 0, "col": 1}}, {"type": "Feature", "geometry": {"type": "Polygon", "coordinates": [[[30.06027, -1.9500899], [30.0604499, -1.9500899], [30.0604499, -1.9499101], [30.06027, -1.9499101], [30.06027, -1.9500899]]]}, "properties": {"kind": "scouting_priority_cell", "priority": 0.3679, "row": 0, "col": 2}}, {"type": "Feature", "geometry": {"type": "Polygon", "coordinates": [[[30.0604499, -1.9500899], [30.0606299, -1.9500899], [30.0606299, -1.9499101], [30.0604499, -1.9499101], [30.0604499, -1.9500899]]]}, "properties": {"kind": "scouting_priority_cell", "priority": 0.2231, "row": 0, "col": 3}}, {"type": "Feature", "geometry": {"type": "Polygon", "coordinates": [[[30.0606299, -1.9500899], [30.0608099, -1.9500899], [30.0608099, -1.9499101], [30.0606299, -1.9499101], [30.0606299, -1.9500899]]]}, "properties": {"kind": "scouting_priority_cell", "priority": 0.1353, "row": 0, "col": 4}}, {"type": "Feature", "geometry": {"type": "Polygon", "coordinates": [[[30.0608099, -1.9500899], [30.0609898, -1.9500899], [30.0609898, -1.9499101], [30.0608099, -1.9499101], [30.0608099, -1.9500899]]]}, "properties": {"kind": "scouting_priority_cell", "priority": 0.0821, "row": 0, "col": 5}}, {"type": "Feature", "geometry": {"type": "Polygon", "coordinates": [[[30.0590102, -1.9499101], [30.0591901, -1.9499101], [30.0591901, -1.9497302], [30.0590102, -1.9497302], [30.0590102, -1.9499101]]]}, "properties": {"kind": "scouting_priority_cell", "priority": 0.1237, "row": 1, "col": -5}}, {"type": "Feature", "geometry": {"type": "Polygon", "coordinates": [[[30.0591901, -1.9499101], [30.0593701, -1.9499101], [30.0593701, -1.9497302], [30.0591901, -1.9497302], [30.0591901, -1.9499101]]]}, "properties": {"kind": "scouting_priority_cell", "priority": 0.1766, "row": 1, "col": -4}}, {"type": "Feature", "geometry": {"type": "Polygon", "coordinates": [[[30.0593701, -1.9499101], [30.0595501, -1.9499101], [30.0595501, -1.9497302], [30.0593701, -1.9497302], [30.0593701, -1.9499101]]]}, "properties": {"kind": "scouting_priority_cell", "priority": 0.2515, "row": 1, "col": -3}}, {"type": "Feature", "geometry": {"type": "Polygon", "coordinates": [[[30.0595501, -1.9499101], [30.05973, -1.9499101], [30.05973, -1.9497302], [30.0595501, -1.9497302], [30.0595501, -1.9499101]]]}, "properties": {"kind": "scouting_priority_cell", "priority": 0.3558, "row": 1, "col": -2}}, {"type": "Feature", "geometry": {"type": "Polygon", "coordinates": [[[30.05973, -1.9499101], [30.05991, -1.9499101], [30.05991, -1.9497302], [30.05973, -1.9497302], [30.05973, -1.9499101]]]}, "properties": {"kind": "scouting_priority_cell", "priority": 0.4954, "row": 1, "col": -1}}, {"type": "Feature", "geometry": {"type": "Polygon", "coordinates": [[[30.05991, -1.9499101], [30.06009, -1.9499101], [30.06009, -1.9497302], [30.05991, -1.9497302], [30.05991, -1.9499101]]]}, "properties": {"kind": "scouting_priority_cell", "priority": 0.6065, "row": 1, "col": 0}}, {"type": "Feature", "geometry": {"type": "Polygon", "coordinates": [[[30.06009, -1.9499101], [30.06027, -1.9499101], [30.06027, -1.9497302], [30.06009, -1.9497302], [30.06009, -1.9499101]]]}, "properties": {"kind": "scouting_priority_cell", "priority": 0.4931, "row": 1, "col": 1}}, {"type": "Feature", "geometry": {"type": "Polygon", "coordinates": [[[30.06027, -1.9499101], [30.0604499, -1.9499101], [30.0604499, -1.9497302], [30.06027, -1.9497302], [30.06027, -1.9499101]]]}, "properties": {"kind": "scouting_priority_cell", "priority": 0.3269, "row": 1, "col": 2}}, {"type": "Feature", "geometry": {"type": "Polygon", "coordinates": [[[30.0604499, -1.9499101], [30.0606299, -1.9499101], [30.0606299, -1.9497302], [30.0604499, -1.9497302], [30.0604499, -1.9499101]]]}, "properties": {"kind": "scouting_priority_cell", "priority": 0.2057, "row": 1, "col": 3}}, {"type": "Feature", "geometry": {"type": "Polygon", "coordinates": [[[30.0606299, -1.9499101], [30.0608099, -1.9499101], [30.0608099, -1.9497302], [30.0606299, -1.9497302], [30.0606299, -1.9499101]]]}, "properties": {"kind": "scouting_priority_cell", "priority": 0.1273, "row": 1, "col": 4}}, {"type": "Feature", "geometry": {"type": "Polygon", "coordinates": [[[30.0608099, -1.9499101], [30.0609898, -1.9499101], [30.0609898, -1.9497302], [30.0608099, -1.9497302], [30.0608099, -1.9499101]]]}, "properties": {"kind": "scouting_priority_cell", "priority": 0.0781, "row": 1, "col": 5}}, {"type": "Feature", "geometry": {"type": "Polygon", "coordinates": [[[30.0590102, -1.9497302], [30.0591901, -1.9497302], [30.0591901, -1.9495503], [30.0590102, -1.9495503], [30.0590102, -1.9497302]]]}, "properties": {"kind": "scouting_priority_cell", "priority": 0.0897, "row": 2, "col": -5}}, {"type": "Feature", "geometry": {"type": "Polygon", "coordinates": [[[30.0591901, -1.9497302], [30.0593701, -1.9497302], [30.0593701, -1.9495503], [30.0591901, -1.9495503], [30.0591901, -1.9497302]]]}, "properties": {"kind": "scouting_priority_cell", "priority": 0.1266, "row": 2, "col": -4}}, {"type": "Feature", "geometry": {"type": "Polygon", "coordinates": [[[30.0593701, -1.9497302], [30.0595501, -1.9497302], [30.0595501, -1.9495503], [30.0593701, -1.9495503], [30.0593701, -1.9497302]]]}, "properties": {"kind": "scouting_priority_cell", "priority": 0.1774, "row": 2, "col": -3}}, {"type": "Feature", "geometry": {"type": "Polygon", "coordinates": [[[30.0595501, -1.9497302], [30.05973, -1.9497302], [30.05973, -1.9495503], [30.0595501, -1.9495503], [30.0595501, -1.9497302]]]}, "properties": {"kind": "scouting_priority_cell", "priority": 0.2455, "row": 2, "col": -2}}, {"type": "Feature", "geometry": {"type": "Polygon", "coordinates": [[[30.05973, -1.9497302], [30.05991, -1.9497302], [30.05991, -1.9495503], [30.05973, -1.9495503], [30.05973, -1.9497302]]]}, "properties": {"kind": "scouting_priority_cell", "priority": 0.3269, "row": 2, "col": -1}}, {"type": "Feature", "geometry": {"type": "Polygon", "coordinates": [[[30.05991, -1.9497302], [30.06009, -1.9497302], [30.06009, -1.9495503], [30.05991, -1.9495503], [30.05991, -1.9497302]]]}, "properties": {"kind": "scouting_priority_cell", "priority": 0.3679, "row": 2, "col": 0}}, {"type": "Feature", "geometry": {"type": "Polygon", "coordinates": [[[30.06009, -1.9497302], [30.06027, -1.9497302], [30.06027, -1.9495503], [30.06009, -1.9495503], [30.06009, -1.9497302]]]}, "properties": {"kind": "scouting_priority_cell", "priority": 0.3269, "row": 2, "col": 1}}, {"type": "Feature", "geometry": {"type": "Polygon", "coordinates": [[[30.06027, -1.9497302], [30.0604499, -1.9497302], [30.0604499, -1.9495503], [30.06027, -1.9495503], [30.06027, -1.9497302]]]}, "properties": {"kind": "scouting_priority_cell", "priority": 0.2431, "row": 2, "col": 2}}, {"type": "Feature", "geometry": {"type": "Polygon", "coordinates": [[[30.0604499, -1.9497302], [30.0606299, -1.9497302], [30.0606299, -1.9495503], [30.0604499, -1.9495503], [30.0604499, -1.9497302]]]}, "properties": {"kind": "scouting_priority_cell", "priority": 0.1648, "row": 2, "col": 3}}, {"type": "Feature", "geometry": {"type": "Polygon", "coordinates": [[[30.0606299, -1.9497302], [30.0608099, -1.9497302], [30.0608099, -1.9495503], [30.0606299, -1.9495503], [30.0606299, -1.9497302]]]}, "properties": {"kind": "scouting_priority_cell", "priority": 0.1069, "row": 2, "col": 4}}, {"type": "Feature", "geometry": {"type": "Polygon", "coordinates": [[[30.0608099, -1.9497302], [30.0609898, -1.9497302], [30.0609898, -1.9495503], [30.0608099, -1.9495503], [30.0608099, -1.9497302]]]}, "properties": {"kind": "scouting_priority_cell", "priority": 0.0677, "row": 2, "col": 5}}, {"type": "Feature", "geometry": {"type": "Polygon", "coordinates": [[[30.0590102, -1.9495503], [30.0591901, -1.9495503], [30.0591901, -1.9493705], [30.0590102, -1.9493705], [30.0590102, -1.9495503]]]}, "properties": {"kind": "scouting_priority_cell", "priority": 0.0632, "row": 3, "col": -5}}, {"type": "Feature", "geometry": {"type": "Polygon", "coordinates": [[[30.0591901, -1.9495503], [30.0593701, -1.9495503], [30.0593701, -1.9493705], [30.0591901, -1.9493705], [30.0591901, -1.9495503]]]}, "properties": {"kind": "scouting_priority_cell", "priority": 0.0881, "row": 3, "col": -4}}, {"type": "Feature", "geometry": {"type": "Polygon", "coordinates": [[[30.0593701, -1.9495503], [30.0595501, -1.9495503], [30.0595501, -1.9493705], [30.0593701, -1.9493705], [30.0593701, -1.9495503]]]}, "properties": {"kind": "scouting_priority_cell", "priority": 0.1216, "row": 3, "col": -3}}, {"type": "Feature", "geometry": {"type": "Polygon", "coordinates": [[[30.0595501, -1.9495503], [30.05973, -1.9495503], [30.05973, -1.9493705], [30.0595501, -1.9493705], [30.0595501, -1.9495503]]]}, "properties": {"kind": "scouting_priority_cell", "priority": 0.1648, "row": 3, "col": -2}}, {"type": "Feature", "geometry": {"type": "Polygon", "coordinates": [[[30.05973, -1.9495503], [30.05991, -1.9495503], [30.05991, -1.9493705], [30.05973, -1.9493705], [30.05973, -1.9495503]]]}, "properties": {"kind": "scouting_priority_cell", "priority": 0.2057, "row": 3, "col": -1}}, {"type": "Feature", "geometry": {"type": "Polygon", "coordinates": [[[30.05991, -1.9495503], [30.06009, -1.9495503], [30.06009, -1.9493705], [30.05991, -1.9493705], [30.05991, -1.9495503]]]}, "properties": {"kind": "scouting_priority_cell", "priority": 0.2231, "row": 3, "col": 0}}, {"type": "Feature", "geometry": {"type": "Polygon", "coordinates": [[[30.06009, -1.9495503], [30.06027, -1.9495503], [30.06027, -1.9493705], [30.06009, -1.9493705], [30.06009, -1.9495503]]]}, "properties": {"kind": "scouting_priority_cell", "priority": 0.2057, "row": 3, "col": 1}}, {"type": "Feature", "geometry": {"type": "Polygon", "coordinates": [[[30.06027, -1.9495503], [30.0604499, -1.9495503], [30.0604499, -1.9493705], [30.06027, -1.9493705], [30.06027, -1.9495503]]]}, "properties": {"kind": "scouting_priority_cell", "priority": 0.1648, "row": 3, "col": 2}}, {"type": "Feature", "geometry": {"type": "Polygon", "coordinates": [[[30.0604499, -1.9495503], [30.0606299, -1.9495503], [30.0606299, -1.9493705], [30.0604499, -1.9493705], [30.0604499, -1.9495503]]]}, "properties": {"kind": "scouting_priority_cell", "priority": 0.1199, "row": 3, "col": 3}}, {"type": "Feature", "geometry": {"type": "Polygon", "coordinates": [[[30.0606299, -1.9495503], [30.0608099, -1.9495503], [30.0608099, -1.9493705], [30.0606299, -1.9493705], [30.0606299, -1.9495503]]]}, "properties": {"kind": "scouting_priority_cell", "priority": 0.0821, "row": 3, "col": 4}}, {"type": "Feature", "geometry": {"type": "Polygon", "coordinates": [[[30.0608099, -1.9495503], [30.0609898, -1.9495503], [30.0609898, -1.9493705], [30.0608099, -1.9493705], [30.0608099, -1.9495503]]]}, "properties": {"kind": "scouting_priority_cell", "priority": 0.0542, "row": 3, "col": 5}}, {"type": "Feature", "geometry": {"type": "Polygon", "coordinates": [[[30.0590102, -1.9493705], [30.0591901, -1.9493705], [30.0591901, -1.9491906], [30.0590102, -1.9491906], [30.0590102, -1.9493705]]]}, "properties": {"kind": "scouting_priority_cell", "priority": 0.0437, "row": 4, "col": -5}}, {"type": "Feature", "geometry": {"type": "Polygon", "coordinates": [[[30.0591901, -1.9493705], [30.0593701, -1.9493705], [30.0593701, -1.9491906], [30.0591901, -1.9491906], [30.0591901, -1.9493705]]]}, "properties": {"kind": "scouting_priority_cell", "priority": 0.0602, "row": 4, "col": -4}}, {"type": "Feature", "geometry": {"type": "Polygon", "coordinates": [[[30.0593701, -1.9493705], [30.0595501, -1.9493705], [30.0595501, -1.9491906], [30.0593701, -1.9491906], [30.0593701, -1.9493705]]]}, "properties": {"kind": "scouting_priority_cell", "priority": 0.0821, "row": 4, "col": -3}}, {"type": "Feature", "geometry": {"type": "Polygon", "coordinates": [[[30.0595501, -1.9493705], [30.05973, -1.9493705], [30.05973, -1.9491906], [30.0595501, -1.9491906], [30.0595501, -1.9493705]]]}, "properties": {"kind": "scouting_priority_cell", "priority": 0.1069, "row": 4, "col": -2}}, {"type": "Feature", "geometry": {"type": "Polygon", "coordinates": [[[30.05973, -1.9493705], [30.05991, -1.9493705], [30.05991, -1.9491906], [30.05973, -1.9491906], [30.05973, -1.9493705]]]}, "properties": {"kind": "scouting_priority_cell", "priority": 0.1273, "row": 4, "col": -1}}, {"type": "Feature", "geometry": {"type": "Polygon", "coordinates": [[[30.05991, -1.9493705], [30.06009, -1.9493705], [30.06009, -1.9491906], [30.05991, -1.9491906], [30.05991, -1.9493705]]]}, "properties": {"kind": "scouting_priority_cell", "priority": 0.1353, "row": 4, "col": 0}}, {"type": "Feature", "geometry": {"type": "Polygon", "coordinates": [[[30.06009, -1.9493705], [30.06027, -1.9493705], [30.06027, -1.9491906], [30.06009, -1.9491906], [30.06009, -1.9493705]]]}, "properties": {"kind": "scouting_priority_cell", "priority": 0.1273, "row": 4, "col": 1}}, {"type": "Feature", "geometry": {"type": "Polygon", "coordinates": [[[30.06027, -1.9493705], [30.0604499, -1.9493705], [30.0604499, -1.9491906], [30.06027, -1.9491906], [30.06027, -1.9493705]]]}, "properties": {"kind": "scouting_priority_cell", "priority": 0.1069, "row": 4, "col": 2}}, {"type": "Feature", "geometry": {"type": "Polygon", "coordinates": [[[30.0604499, -1.9493705], [30.0606299, -1.9493705], [30.0606299, -1.9491906], [30.0604499, -1.9491906], [30.0604499, -1.9493705]]]}, "properties": {"kind": "scouting_priority_cell", "priority": 0.0821, "row": 4, "col": 3}}, {"type": "Feature", "geometry": {"type": "Polygon", "coordinates": [[[30.0606299, -1.9493705], [30.0608099, -1.9493705], [30.0608099, -1.9491906], [30.0606299, -1.9491906], [30.0606299, -1.9493705]]]}, "properties": {"kind": "scouting_priority_cell", "priority": 0.0591, "row": 4, "col": 4}}, {"type": "Feature", "geometry": {"type": "Polygon", "coordinates": [[[30.0608099, -1.9493705], [30.0609898, -1.9493705], [30.0609898, -1.9491906], [30.0608099, -1.9491906], [30.0608099, -1.9493705]]]}, "properties": {"kind": "scouting_priority_cell", "priority": 0.0407, "row": 4, "col": 5}}, {"type": "Feature", "geometry": {"type": "Polygon", "coordinates": [[[30.0590102, -1.9491906], [30.0591901, -1.9491906], [30.0591901, -1.9490107], [30.0590102, -1.9490107], [30.0590102, -1.9491906]]]}, "properties": {"kind": "scouting_priority_cell", "priority": 0.0298, "row": 5, "col": -5}}, {"type": "Feature", "geometry": {"type": "Polygon", "coordinates": [[[30.0591901, -1.9491906], [30.0593701, -1.9491906], [30.0593701, -1.9490107], [30.0591901, -1.9490107], [30.0591901, -1.9491906]]]}, "properties": {"kind": "scouting_priority_cell", "priority": 0.0407, "row": 5, "col": -4}}, {"type": "Feature", "geometry": {"type": "Polygon", "coordinates": [[[30.0593701, -1.9491906], [30.0595501, -1.9491906], [30.0595501, -1.9490107], [30.0593701, -1.9490107], [30.0593701, -1.9491906]]]}, "properties": {"kind": "scouting_priority_cell", "priority": 0.0542, "row": 5, "col": -3}}, {"type": "Feature", "geometry": {"type": "Polygon", "coordinates": [[[30.0595501, -1.9491906], [30.05973, -1.9491906], [30.05973, -1.9490107], [30.0595501, -1.9490107], [30.0595501, -1.9491906]]]}, "properties": {"kind": "scouting_priority_cell", "priority": 0.0677, "row": 5, "col": -2}}, {"type": "Feature", "geometry": {"type": "Polygon", "coordinates": [[[30.05973, -1.9491906], [30.05991, -1.9491906], [30.05991, -1.9490107], [30.05973, -1.9490107], [30.05973, -1.9491906]]]}, "properties": {"kind": "scouting_priority_cell", "priority": 0.0781, "row": 5, "col": -1}}, {"type": "Feature", "geometry": {"type": "Polygon", "coordinates": [[[30.05991, -1.9491906], [30.06009, -1.9491906], [30.06009, -1.9490107], [30.05991, -1.9490107], [30.05991, -1.9491906]]]}, "properties": {"kind": "scouting_priority_cell", "priority": 0.0821, "row": 5, "col": 0}}, {"type": "Feature", "geometry": {"type": "Polygon", "coordinates": [[[30.06009, -1.9491906], [30.06027, -1.9491906], [30.06027, -1.9490107], [30.06009, -1.9490107], [30.06009, -1.9491906]]]}, "properties": {"kind": "scouting_priority_cell", "priority": 0.0781, "row": 5, "col": 1}}, {"type": "Feature", "geometry": {"type": "Polygon", "coordinates": [[[30.06027, -1.9491906], [30.0604499, -1.9491906], [30.0604499, -1.9490107], [30.06027, -1.9490107], [30.06027, -1.9491906]]]}, "properties": {"kind": "scouting_priority_cell", "priority": 0.0677, "row": 5, "col": 2}}, {"type": "Feature", "geometry": {"type": "Polygon", "coordinates": [[[30.0604499, -1.9491906], [30.0606299, -1.9491906], [30.0606299, -1.9490107], [30.0604499, -1.9490107], [30.0604499, -1.9491906]]]}, "properties": {"kind": "scouting_priority_cell", "priority": 0.0542, "row": 5, "col": 3}}, {"type": "Feature", "geometry": {"type": "Polygon", "coordinates": [[[30.0606299, -1.9491906], [30.0608099, -1.9491906], [30.0608099, -1.9490107], [30.0606299, -1.9490107], [30.0606299, -1.9491906]]]}, "properties": {"kind": "scouting_priority_cell", "priority": 0.0407, "row": 5, "col": 4}}, {"type": "Feature", "geometry": {"type": "Polygon", "coordinates": [[[30.0608099, -1.9491906], [30.0609898, -1.9491906], [30.0609898, -1.9490107], [30.0608099, -1.9490107], [30.0608099, -1.9491906]]]}, "properties": {"kind": "scouting_priority_cell", "priority": 0.0291, "row": 5, "col": 5}}, {"type": "Feature", "geometry": {"type": "Point", "coordinates": [30.06, -1.95]}, "properties": {"kind": "reported_observation", "present": true, "label": "Reported plant (this observation)", "observation_id": "demo-coffee-001", "current": true}}, {"type": "Feature", "geometry": {"type": "Point", "coordinates": [30.06, -1.95]}, "properties": {"kind": "scouting_point", "rank": 1, "label": "Priority point 1", "priority": 1.0, "scouting_id": "scout_point_1"}}, {"type": "Feature", "geometry": {"type": "Point", "coordinates": [30.0596401, -1.9501799]}, "properties": {"kind": "scouting_point", "rank": 2, "label": "Priority point 2", "priority": 0.5558, "scouting_id": "scout_point_2"}}, {"type": "Feature", "geometry": {"type": "Point", "coordinates": [30.06, -1.9503597]}, "properties": {"kind": "scouting_point", "rank": 3, "label": "Priority point 3", "priority": 0.4269, "scouting_id": "scout_point_3"}}, {"type": "Feature", "geometry": {"type": "Point", "coordinates": [30.0603599, -1.95]}, "properties": {"kind": "scouting_point", "rank": 4, "label": "Priority point 4", "priority": 0.3679, "scouting_id": "scout_point_4"}}, {"type": "Feature", "geometry": {"type": "Point", "coordinates": [30.06, -1.9496403]}, "properties": {"kind": "scouting_point", "rank": 5, "label": "Priority point 5", "priority": 0.3679, "scouting_id": "scout_point_5"}}]}
