{"type": "FeatureCollection", "features": [{"type": "Feature", "geometry": {"type": "Polygon", "coordinates": [[[30.0590102, -1.9509893], [30.0591901, -1.9509893], [30.0591901, -1.9508094], [30.0590102, -1.9508094], [30.0590102, -1.9509893]]]}, "properties": {"kind": "scouting_priority_cell", "priority": 0.1552, "row": -5, "col": -5}}, {"type": "Feature", "geometry": {"type": "Polygon", "coordinates": [[[30.0591901, -1.9509893], [30.0593701, -1.9509893], [30.0593701, -1.9508094], [30.0591901, -1.9508094], [30.0591901, -1.9509893]]]}, "properties": {"kind": "scouting_priority_cell", "priority": 0.1646, "row": -5, "col": -4}}, {"type": "Feature", "geometry": {"type": "Polygon", "coordinates": [[[30.0593701, -1.9509893], [30.0595501, -1.9509893], [30.0595501, -1.9508094], [30.0593701, -1.9508094], [30.0593701, -1.9509893]]]}, "properties": {"kind": "scouting_priority_cell", "priority": 0.1622, "row": -5, "col": -3}}, {"type": "Feature", "geometry": {"type": "Polygon", "coordinates": [[[30.0595501, -1.9509893], [30.05973, -1.9509893], [30.05973, -1.9508094], [30.0595501, -1.9508094], [30.0595501, -1.9509893]]]}, "properties": {"kind": "scouting_priority_cell", "priority": 0.1495, "row": -5, "col": -2}}, {"type": "Feature", "geometry": {"type": "Polygon", "coordinates": [[[30.05973, -1.9509893], [30.05991, -1.9509893], [30.05991, -1.9508094], [30.05973, -1.9508094], [30.05973, -1.9509893]]]}, "properties": {"kind": "scouting_priority_cell", "priority": 0.1308, "row": -5, "col": -1}}, {"type": "Feature", "geometry": {"type": "Polygon", "coordinates": [[[30.05991, -1.9509893], [30.06009, -1.9509893], [30.06009, -1.9508094], [30.05991, -1.9508094], [30.05991, -1.9509893]]]}, "properties": {"kind": "scouting_priority_cell", "priority": 0.1098, "row": -5, "col": 0}}, {"type": "Feature", "geometry": {"type": "Polygon", "coordinates": [[[30.06009, -1.9509893], [30.06027, -1.9509893], [30.06027, -1.9508094], [30.06009, -1.9508094], [30.06009, -1.9509893]]]}, "properties": {"kind": "scouting_priority_cell", "priority": 0.0889, "row": -5, "col": 1}}, {"type": "Feature", "geometry": {"type": "Polygon", "coordinates": [[[30.06027, -1.9509893], [30.0604499, -1.9509893], [30.0604499, -1.9508094], [30.06027, -1.9508094], [30.06027, -1.9509893]]]}, "properties": {"kind": "scouting_priority_cell", "priority": 0.0698, "row": -5, "col": 2}}, {"type": "Feature", "geometry": {"type": "Polygon", "coordinates": [[[30.0604499, -1.9509893], [30.0606299, -1.9509893], [30.0606299, -1.9508094], [30.0604499, -1.9508094], [30.0604499, -1.9509893]]]}, "properties": {"kind": "scouting_priority_cell", "priority": 0.0533, "row": -5, "col": 3}}, {"type": "Feature", "geometry": {"type": "Polygon", "coordinates": [[[30.0606299, -1.9509893], [30.0608099, -1.9509893], [30.0608099, -1.9508094], [30.0606299, -1.9508094], [30.0606299, -1.9509893]]]}, "properties": {"kind": "scouting_priority_cell", "priority": 0.0399, "row": -5, "col": 4}}, {"type": "Feature", "geometry": {"type": "Polygon", "coordinates": [[[30.0608099, -1.9509893], [30.0609898, -1.9509893], [30.0609898, -1.9508094], [30.0608099, -1.9508094], [30.0608099, -1.9509893]]]}, "properties": {"kind": "scouting_priority_cell", "priority": 0.0291, "row": -5, "col": 5}}, {"type": "Feature", "geometry": {"type": "Polygon", "coordinates": [[[30.0590102, -1.9508094], [30.0591901, -1.9508094], [30.0591901, -1.9506295], [30.0590102, -1.9506295], [30.0590102, -1.9508094]]]}, "properties": {"kind": "scouting_priority_cell", "priority": 0.1883, "row": -4, "col": -5}}, {"type": "Feature", "geometry": {"type": "Polygon", "coordinates": [[[30.0591901, -1.9508094], [30.0593701, -1.9508094], [30.0593701, -1.9506295], [30.0591901, -1.9506295], [30.0591901, -1.9508094]]]}, "properties": {"kind": "scouting_priority_cell", "priority": 0.2116, "row": -4, "col": -4}}, {"type": "Feature", "geometry": {"type": "Polygon", "coordinates": [[[30.0593701, -1.9508094], [30.0595501, -1.9508094], [30.0595501, -1.9506295], [30.0593701, -1.9506295], [30.0593701, -1.9508094]]]}, "properties": {"kind": "scouting_priority_cell", "priority": 0.2182, "row": -4, "col": -3}}, {"type": "Feature", "geometry": {"type": "Polygon", "coordinates": [[[30.0595501, -1.9508094], [30.05973, -1.9508094], [30.05973, -1.9506295], [30.0595501, -1.9506295], [30.0595501, -1.9508094]]]}, "properties": {"kind": "scouting_priority_cell", "priority": 0.2073, "row": -4, "col": -2}}, {"type": "Feature", "geometry": {"type": "Polygon", "coordinates": [[[30.05973, -1.9508094], [30.05991, -1.9508094], [30.05991, -1.9506295], [30.05973, -1.9506295], [30.05973, -1.9508094]]]}, "properties": {"kind": "scouting_priority_cell", "priority": 0.1864, "row": -4, "col": -1}}, {"type": "Feature", "geometry": {"type": "Polygon", "coordinates": [[[30.05991, -1.9508094], [30.06009, -1.9508094], [30.06009, -1.9506295], [30.05991, -1.9506295], [30.05991, -1.9508094]]]}, "properties": {"kind": "scouting_priority_cell", "priority": 0.1605, "row": -4, "col": 0}}, {"type": "Feature", "geometry": {"type": "Polygon", "coordinates": [[[30.06009, -1.9508094], [30.06027, -1.9508094], [30.06027, -1.9506295], [30.06009, -1.9506295], [30.06009, -1.9508094]]]}, "properties": {"kind": "scouting_priority_cell", "priority": 0.1318, "row": -4, "col": 1}}, {"type": "Feature", "geometry": {"type": "Polygon", "coordinates": [[[30.06027, -1.9508094], [30.0604499, -1.9508094], [30.0604499, -1.9506295], [30.06027, -1.9506295], [30.06027, -1.9508094]]]}, "properties": {"kind": "scouting_priority_cell", "priority": 0.1038, "row": -4, "col": 2}}, {"type": "Feature", "geometry": {"type": "Polygon", "coordinates": [[[30.0604499, -1.9508094], [30.0606299, -1.9508094], [30.0606299, -1.9506295], [30.0604499, -1.9506295], [30.0604499, -1.9508094]]]}, "properties": {"kind": "scouting_priority_cell", "priority": 0.0791, "row": -4, "col": 3}}, {"type": "Feature", "geometry": {"type": "Polygon", "coordinates": [[[30.0606299, -1.9508094], [30.0608099, -1.9508094], [30.0608099, -1.9506295], [30.0606299, -1.9506295], [30.0606299, -1.9508094]]]}, "properties": {"kind": "scouting_priority_cell", "priority": 0.0577, "row": -4, "col": 4}}, {"type": "Feature", "geometry": {"type": "Polygon", "coordinates": [[[30.0608099, -1.9508094], [30.0609898, -1.9508094], [30.0609898, -1.9506295], [30.0608099, -1.9506295], [30.0608099, -1.9508094]]]}, "properties": {"kind": "scouting_priority_cell", "priority": 0.0439, "row": -4, "col": 5}}, {"type": "Feature", "geometry": {"type": "Polygon", "coordinates": [[[30.0590102, -1.9506295], [30.0591901, -1.9506295], [30.0591901, -1.9504497], [30.0590102, -1.9504497], [30.0590102, -1.9506295]]]}, "properties": {"kind": "scouting_priority_cell", "priority": 0.2079, "row": -3, "col": -5}}, {"type": "Feature", "geometry": {"type": "Polygon", "coordinates": [[[30.0591901, -1.9506295], [30.0593701, -1.9506295], [30.0593701, -1.9504497], [30.0591901, -1.9504497], [30.0591901, -1.9506295]]]}, "properties": {"kind": "scouting_priority_cell", "priority": 0.2491, "row": -3, "col": -4}}, {"type": "Feature", "geometry": {"type": "Polygon", "coordinates": [[[30.0593701, -1.9506295], [30.0595501, -1.9506295], [30.0595501, -1.9504497], [30.0593701, -1.9504497], [30.0593701, -1.9506295]]]}, "properties": {"kind": "scouting_priority_cell", "priority": 0.271, "row": -3, "col": -3}}, {"type": "Feature", "geometry": {"type": "Polygon", "coordinates": [[[30.0595501, -1.9506295], [30.05973, -1.9506295], [30.05973, -1.9504497], [30.0595501, -1.9504497], [30.0595501, -1.9506295]]]}, "properties": {"kind": "scouting_priority_cell", "priority": 0.2658, "row": -3, "col": -2}}, {"type": "Feature", "geometry": {"type": "Polygon", "coordinates": [[[30.05973, -1.9506295], [30.05991, -1.9506295], [30.05991, -1.9504497], [30.05973, -1.9504497], [30.05973, -1.9506295]]]}, "properties": {"kind": "scouting_priority_cell", "priority": 0.2528, "row": -3, "col": -1}}, {"type": "Feature", "geometry": {"type": "Polygon", "coordinates": [[[30.05991, -1.9506295], [30.06009, -1.9506295], [30.06009, -1.9504497], [30.05991, -1.9504497], [30.05991, -1.9506295]]]}, "properties": {"kind": "scouting_priority_cell", "priority": 0.2309, "row": -3, "col": 0}}, {"type": "Feature", "geometry": {"type": "Polygon", "coordinates": [[[30.06009, -1.9506295], [30.06027, -1.9506295], [30.06027, -1.9504497], [30.06009, -1.9504497], [30.06009, -1.9506295]]]}, "properties": {"kind": "scouting_priority_cell", "priority": 0.1945, "row": -3, "col": 1}}, {"type": "Feature", "geometry": {"type": "Polygon", "coordinates": [[[30.06027, -1.9506295], [30.0604499, -1.9506295], [30.0604499, -1.9504497], [30.06027, -1.9504497], [30.06027, -1.9506295]]]}, "properties": {"kind": "scouting_priority_cell", "priority": 0.1535, "row": -3, "col": 2}}, {"type": "Feature", "geometry": {"type": "Polygon", "coordinates": [[[30.0604499, -1.9506295], [30.0606299, -1.9506295], [30.0606299, -1.9504497], [30.0604499, -1.9504497], [30.0604499, -1.9506295]]]}, "properties": {"kind": "scouting_priority_cell", "priority": 0.1146, "row": -3, "col": 3}}, {"type": "Feature", "geometry": {"type": "Polygon", "coordinates": [[[30.0606299, -1.9506295], [30.0608099, -1.9506295], [30.0608099, -1.9504497], [30.0606299, -1.9504497], [30.0606299, -1.9506295]]]}, "properties": {"kind": "scouting_priority_cell", "priority": 0.0864, "row": -3, "col": 4}}, {"type": "Feature", "geometry": {"type": "Polygon", "coordinates": [[[30.0608099, -1.9506295], [30.0609898, -1.9506295], [30.0609898, -1.9504497], [30.0608099, -1.9504497], [30.0608099, -1.9506295]]]}, "properties": {"kind": "scouting_priority_cell", "priority": 0.0659, "row": -3, "col": 5}}, {"type": "Feature", "geometry": {"type": "Polygon", "coordinates": [[[30.0590102, -1.9504497], [30.0591901, -1.9504497], [30.0591901, -1.9502698], [30.0590102, -1.9502698], [30.0590102, -1.9504497]]]}, "properties": {"kind": "scouting_priority_cell", "priority": 0.2056, "row": -2, "col": -5}}, {"type": "Feature", "geometry": {"type": "Polygon", "coordinates": [[[30.0591901, -1.9504497], [30.0593701, -1.9504497], [30.0593701, -1.9502698], [30.0591901, -1.9502698], [30.0591901, -1.9504497]]]}, "properties": {"kind": "scouting_priority_cell", "priority": 0.2614, "row": -2, "col": -4}}, {"type": "Feature", "geometry": {"type": "Polygon", "coordinates": [[[30.0593701, -1.9504497], [30.0595501, -1.9504497], [30.0595501, -1.9502698], [30.0593701, -1.9502698], [30.0593701, -1.9504497]]]}, "properties": {"kind": "scouting_priority_cell", "priority": 0.3022, "row": -2, "col": -3}}, {"type": "Feature", "geometry": {"type": "Polygon", "coordinates": [[[30.0595501, -1.9504497], [30.05973, -1.9504497], [30.05973, -1.9502698], [30.0595501, -1.9502698], [30.0595501, -1.9504497]]]}, "properties": {"kind": "scouting_priority_cell", "priority": 0.2926, "row": -2, "col": -2}}, {"type": "Feature", "geometry": {"type": "Polygon", "coordinates": [[[30.05973, -1.9504497], [30.05991, -1.9504497], [30.05991, -1.9502698], [30.05973, -1.9502698], [30.05973, -1.9504497]]]}, "properties": {"kind": "scouting_priority_cell", "priority": 0.3245, "row": -2, "col": -1}}, {"type": "Feature", "geometry": {"type": "Polygon", "coordinates": [[[30.05991, -1.9504497], [30.06009, -1.9504497], [30.06009, -1.9502698], [30.05991, -1.9502698], [30.05991, -1.9504497]]]}, "properties": {"kind": "scouting_priority_cell", "priority": 0.3356, "row": -2, "col": 0}}, {"type": "Feature", "geometry": {"type": "Polygon", "coordinates": [[[30.06009, -1.9504497], [30.06027, -1.9504497], [30.06027, -1.9502698], [30.06009, -1.9502698], [30.06009, -1.9504497]]]}, "properties": {"kind": "scouting_priority_cell", "priority": 0.2885, "row": -2, "col": 1}}, {"type": "Feature", "geometry": {"type": "Polygon", "coordinates": [[[30.06027, -1.9504497], [30.0604499, -1.9504497], [30.0604499, -1.9502698], [30.06027, -1.9502698], [30.06027, -1.9504497]]]}, "properties": {"kind": "scouting_priority_cell", "priority": 0.2238, "row": -2, "col": 2}}, {"type": "Feature", "geometry": {"type": "Polygon", "coordinates": [[[30.0604499, -1.9504497], [30.0606299, -1.9504497], [30.0606299, -1.9502698], [30.0604499, -1.9502698], [30.0604499, -1.9504497]]]}, "properties": {"kind": "scouting_priority_cell", "priority": 0.1669, "row": -2, "col": 3}}, {"type": "Feature", "geometry": {"type": "Polygon", "coordinates": [[[30.0606299, -1.9504497], [30.0608099, -1.9504497], [30.0608099, -1.9502698], [30.0606299, -1.9502698], [30.0606299, -1.9504497]]]}, "properties": {"kind": "scouting_priority_cell", "priority": 0.1304, "row": -2, "col": 4}}, {"type": "Feature", "geometry": {"type": "Polygon", "coordinates": [[[30.0608099, -1.9504497], [30.0609898, -1.9504497], [30.0609898, -1.9502698], [30.0608099, -1.9502698], [30.0608099, -1.9504497]]]}, "properties": {"kind": "scouting_priority_cell", "priority": 0.0984, "row": -2, "col": 5}}, {"type": "Feature", "geometry": {"type": "Polygon", "coordinates": [[[30.0590102, -1.9502698], [30.0591901, -1.9502698], [30.0591901, -1.9500899], [30.0590102, -1.9500899], [30.0590102, -1.9502698]]]}, "properties": {"kind": "scouting_priority_cell", "priority": 0.1834, "row": -1, "col": -5}}, {"type": "Feature", "geometry": {"type": "Polygon", "coordinates": [[[30.0591901, -1.9502698], [30.0593701, -1.9502698], [30.0593701, -1.9500899], [30.0591901, -1.9500899], [30.0591901, -1.9502698]]]}, "properties": {"kind": "scouting_priority_cell", "priority": 0.2442, "row": -1, "col": -4}}, {"type": "Feature", "geometry": {"type": "Polygon", "coordinates": [[[30.0593701, -1.9502698], [30.0595501, -1.9502698], [30.0595501, -1.9500899], [30.0593701, -1.9500899], [30.0593701, -1.9502698]]]}, "properties": {"kind": "scouting_priority_cell", "priority": 0.3082, "row": -1, "col": -3}}, {"type": "Feature", "geometry": {"type": "Polygon", "coordinates": [[[30.0595501, -1.9502698], [30.05973, -1.9502698], [30.05973, -1.9500899], [30.0595501, -1.9500899], [30.0595501, -1.9502698]]]}, "properties": {"kind": "scouting_priority_cell", "priority": 0.3644, "row": -1, "col": -2}}, {"type": "Feature", "geometry": {"type": "Polygon", "coordinates": [[[30.05973, -1.9502698], [30.05991, -1.9502698], [30.05991, -1.9500899], [30.05973, -1.9500899], [30.05973, -1.9502698]]]}, "properties": {"kind": "scouting_priority_cell", "priority": 0.4787, "row": -1, "col": -1}}, {"type": "Feature", "geometry": {"type": "Polygon", "coordinates": [[[30.05991, -1.9502698], [30.06009, -1.9502698], [30.06009, -1.9500899], [30.05991, -1.9500899], [30.05991, -1.9502698]]]}, "properties": {"kind": "scouting_priority_cell", "priority": 0.5203, "row": -1, "col": 0}}, {"type": "Feature", "geometry": {"type": "Polygon", "coordinates": [[[30.06009, -1.9502698], [30.06027, -1.9502698], [30.06027, -1.9500899], [30.06009, -1.9500899], [30.06009, -1.9502698]]]}, "properties": {"kind": "scouting_priority_cell", "priority": 0.4307, "row": -1, "col": 1}}, {"type": "Feature", "geometry": {"type": "Polygon", "coordinates": [[[30.06027, -1.9502698], [30.0604499, -1.9502698], [30.0604499, -1.9500899], [30.06027, -1.9500899], [30.06027, -1.9502698]]]}, "properties": {"kind": "scouting_priority_cell", "priority": 0.3101, "row": -1, "col": 2}}, {"type": "Feature", "geometry": {"type": "Polygon", "coordinates": [[[30.0604499, -1.9502698], [30.0606299, -1.9502698], [30.0606299, -1.9500899], [30.0604499, -1.9500899], [30.0604499, -1.9502698]]]}, "properties": {"kind": "scouting_priority_cell", "priority": 0.2544, "row": -1, "col": 3}}, {"type": "Feature", "geometry": {"type": "Polygon", "coordinates": [[[30.0606299, -1.9502698], [30.0608099, -1.9502698], [30.0608099, -1.9500899], [30.0606299, -1.9500899], [30.0606299, -1.9502698]]]}, "properties": {"kind": "scouting_priority_cell", "priority": 0.196, "row": -1, "col": 4}}, {"type": "Feature", "geometry": {"type": "Polygon", "coordinates": [[[30.0608099, -1.9502698], [30.0609898, -1.9502698], [30.0609898, -1.9500899], [30.0608099, -1.9500899], [30.0608099, -1.9502698]]]}, "properties": {"kind": "scouting_priority_cell", "priority": 0.1432, "row": -1, "col": 5}}, {"type": "Feature", "geometry": {"type": "Polygon", "coordinates": [[[30.0590102, -1.9500899], [30.0591901, -1.9500899], [30.0591901, -1.9499101], [30.0590102, -1.9499101], [30.0590102, -1.9500899]]]}, "properties": {"kind": "scouting_priority_cell", "priority": 0.1506, "row": 0, "col": -5}}, {"type": "Feature", "geometry": {"type": "Polygon", "coordinates": [[[30.0591901, -1.9500899], [30.0593701, -1.9500899], [30.0593701, -1.9499101], [30.0591901, -1.9499101], [30.0591901, -1.9500899]]]}, "properties": {"kind": "scouting_priority_cell", "priority": 0.2067, "row": 0, "col": -4}}, {"type": "Feature", "geometry": {"type": "Polygon", "coordinates": [[[30.0593701, -1.9500899], [30.0595501, -1.9500899], [30.0595501, -1.9499101], [30.0593701, -1.9499101], [30.0593701, -1.9500899]]]}, "properties": {"kind": "scouting_priority_cell", "priority": 0.2792, "row": 0, "col": -3}}, {"type": "Feature", "geometry": {"type": "Polygon", "coordinates": [[[30.0595501, -1.9500899], [30.05973, -1.9500899], [30.05973, -1.9499101], [30.0595501, -1.9499101], [30.0595501, -1.9500899]]]}, "properties": {"kind": "scouting_priority_cell", "priority": 0.3809, "row": 0, "col": -2}}, {"type": "Feature", "geometry": {"type": "Polygon", "coordinates": [[[30.05973, -1.9500899], [30.05991, -1.9500899], [30.05991, -1.9499101], [30.05973, -1.9499101], [30.05973, -1.9500899]]]}, "properties": {"kind": "scouting_priority_cell", "priority": 0.5542, "row": 0, "col": -1}}, {"type": "Feature", "geometry": {"type": "Polygon", "coordinates": [[[30.05991, -1.9500899], [30.06009, -1.9500899], [30.06009, -1.9499101], [30.05991, -1.9499101], [30.05991, -1.9500899]]]}, "properties": {"kind": "scouting_priority_cell", "priority": 0.8462, "row": 0, "col": 0}}, {"type": "Feature", "geometry": {"type": "Polygon", "coordinates": [[[30.06009, -1.9500899], [30.06027, -1.9500899], [30.06027, -1.9499101], [30.06009, -1.9499101], [30.06009, -1.9500899]]]}, "properties": {"kind": "scouting_priority_cell", "priority": 0.5436, "row": 0, "col": 1}}, {"type": "Feature", "geometry": {"type": "Polygon", "coordinates": [[[30.06027, -1.9500899], [30.0604499, -1.9500899], [30.0604499, -1.9499101], [30.06027, -1.9499101], [30.06027, -1.9500899]]]}, "properties": {"kind": "scouting_priority_cell", "priority": 0.4796, "row": 0, "col": 2}}, {"type": "Feature", "geometry": {"type": "Polygon", "coordinates": [[[30.0604499, -1.9500899], [30.0606299, -1.9500899], [30.0606299, -1.9499101], [30.0604499, -1.9499101], [30.0604499, -1.9500899]]]}, "properties": {"kind": "scouting_priority_cell", "priority": 0.3878, "row": 0, "col": 3}}, {"type": "Feature", "geometry": {"type": "Polygon", "coordinates": [[[30.0606299, -1.9500899], [30.0608099, -1.9500899], [30.0608099, -1.9499101], [30.0606299, -1.9499101], [30.0606299, -1.9500899]]]}, "properties": {"kind": "scouting_priority_cell", "priority": 0.2879, "row": 0, "col": 4}}, {"type": "Feature", "geometry": {"type": "Polygon", "coordinates": [[[30.0608099, -1.9500899], [30.0609898, -1.9500899], [30.0609898, -1.9499101], [30.0608099, -1.9499101], [30.0608099, -1.9500899]]]}, "properties": {"kind": "scouting_priority_cell", "priority": 0.1947, "row": 0, "col": 5}}, {"type": "Feature", "geometry": {"type": "Polygon", "coordinates": [[[30.0590102, -1.9499101], [30.0591901, -1.9499101], [30.0591901, -1.9497302], [30.0590102, -1.9497302], [30.0590102, -1.9499101]]]}, "properties": {"kind": "scouting_priority_cell", "priority": 0.1164, "row": 1, "col": -5}}, {"type": "Feature", "geometry": {"type": "Polygon", "coordinates": [[[30.0591901, -1.9499101], [30.0593701, -1.9499101], [30.0593701, -1.9497302], [30.0591901, -1.9497302], [30.0591901, -1.9499101]]]}, "properties": {"kind": "scouting_priority_cell", "priority": 0.1616, "row": 1, "col": -4}}, {"type": "Feature", "geometry": {"type": "Polygon", "coordinates": [[[30.0593701, -1.9499101], [30.0595501, -1.9499101], [30.0595501, -1.9497302], [30.0593701, -1.9497302], [30.0593701, -1.9499101]]]}, "properties": {"kind": "scouting_priority_cell", "priority": 0.2232, "row": 1, "col": -3}}, {"type": "Feature", "geometry": {"type": "Polygon", "coordinates": [[[30.0595501, -1.9499101], [30.05973, -1.9499101], [30.05973, -1.9497302], [30.0595501, -1.9497302], [30.0595501, -1.9499101]]]}, "properties": {"kind": "scouting_priority_cell", "priority": 0.3094, "row": 1, "col": -2}}, {"type": "Feature", "geometry": {"type": "Polygon", "coordinates": [[[30.05973, -1.9499101], [30.05991, -1.9499101], [30.05991, -1.9497302], [30.05973, -1.9497302], [30.05973, -1.9499101]]]}, "properties": {"kind": "scouting_priority_cell", "priority": 0.4328, "row": 1, "col": -1}}, {"type": "Feature", "geometry": {"type": "Polygon", "coordinates": [[[30.05991, -1.9499101], [30.06009, -1.9499101], [30.06009, -1.9497302], [30.05991, -1.9497302], [30.05991, -1.9499101]]]}, "properties": {"kind": "scouting_priority_cell", "priority": 0.5436, "row": 1, "col": 0}}, {"type": "Feature", "geometry": {"type": "Polygon", "coordinates": [[[30.06009, -1.9499101], [30.06027, -1.9499101], [30.06027, -1.9497302], [30.06009, -1.9497302], [30.06009, -1.9499101]]]}, "properties": {"kind": "scouting_priority_cell", "priority": 0.6448, "row": 1, "col": 1}}, {"type": "Feature", "geometry": {"type": "Polygon", "coordinates": [[[30.06027, -1.9499101], [30.0604499, -1.9499101], [30.0604499, -1.9497302], [30.06027, -1.9497302], [30.06027, -1.9499101]]]}, "properties": {"kind": "scouting_priority_cell", "priority": 0.7415, "row": 1, "col": 2}}, {"type": "Feature", "geometry": {"type": "Polygon", "coordinates": [[[30.0604499, -1.9499101], [30.0606299, -1.9499101], [30.0606299, -1.9497302], [30.0604499, -1.9497302], [30.0604499, -1.9499101]]]}, "properties": {"kind": "scouting_priority_cell", "priority": 0.5786, "row": 1, "col": 3}}, {"type": "Feature", "geometry": {"type": "Polygon", "coordinates": [[[30.0606299, -1.9499101], [30.0608099, -1.9499101], [30.0608099, -1.9497302], [30.0606299, -1.9497302], [30.0606299, -1.9499101]]]}, "properties": {"kind": "scouting_priority_cell", "priority": 0.3785, "row": 1, "col": 4}}, {"type": "Feature", "geometry": {"type": "Polygon", "coordinates": [[[30.0608099, -1.9499101], [30.0609898, -1.9499101], [30.0609898, -1.9497302], [30.0608099, -1.9497302], [30.0608099, -1.9499101]]]}, "properties": {"kind": "scouting_priority_cell", "priority": 0.2364, "row": 1, "col": 5}}, {"type": "Feature", "geometry": {"type": "Polygon", "coordinates": [[[30.0590102, -1.9497302], [30.0591901, -1.9497302], [30.0591901, -1.9495503], [30.0590102, -1.9495503], [30.0590102, -1.9497302]]]}, "properties": {"kind": "scouting_priority_cell", "priority": 0.0859, "row": 2, "col": -5}}, {"type": "Feature", "geometry": {"type": "Polygon", "coordinates": [[[30.0591901, -1.9497302], [30.0593701, -1.9497302], [30.0593701, -1.9495503], [30.0591901, -1.9495503], [30.0591901, -1.9497302]]]}, "properties": {"kind": "scouting_priority_cell", "priority": 0.1194, "row": 2, "col": -4}}, {"type": "Feature", "geometry": {"type": "Polygon", "coordinates": [[[30.0593701, -1.9497302], [30.0595501, -1.9497302], [30.0595501, -1.9495503], [30.0593701, -1.9495503], [30.0593701, -1.9497302]]]}, "properties": {"kind": "scouting_priority_cell", "priority": 0.1648, "row": 2, "col": -3}}, {"type": "Feature", "geometry": {"type": "Polygon", "coordinates": [[[30.0595501, -1.9497302], [30.05973, -1.9497302], [30.05973, -1.9495503], [30.0595501, -1.9495503], [30.0595501, -1.9497302]]]}, "properties": {"kind": "scouting_priority_cell", "priority": 0.226, "row": 2, "col": -2}}, {"type": "Feature", "geometry": {"type": "Polygon", "coordinates": [[[30.05973, -1.9497302], [30.05991, -1.9497302], [30.05991, -1.9495503], [30.05973, -1.9495503], [30.05973, -1.9497302]]]}, "properties": {"kind": "scouting_priority_cell", "priority": 0.3016, "row": 2, "col": -1}}, {"type": "Feature", "geometry": {"type": "Polygon", "coordinates": [[[30.05991, -1.9497302], [30.06009, -1.9497302], [30.06009, -1.9495503], [30.05991, -1.9495503], [30.05991, -1.9497302]]]}, "properties": {"kind": "scouting_priority_cell", "priority": 0.3811, "row": 2, "col": 0}}, {"type": "Feature", "geometry": {"type": "Polygon", "coordinates": [[[30.06009, -1.9497302], [30.06027, -1.9497302], [30.06027, -1.9495503], [30.06009, -1.9495503], [30.06009, -1.9497302]]]}, "properties": {"kind": "scouting_priority_cell", "priority": 0.5535, "row": 2, "col": 1}}, {"type": "Feature", "geometry": {"type": "Polygon", "coordinates": [[[30.06027, -1.9497302], [30.0604499, -1.9497302], [30.0604499, -1.9495503], [30.06027, -1.9495503], [30.06027, -1.9497302]]]}, "properties": {"kind": "scouting_priority_cell", "priority": 0.7882, "row": 2, "col": 2}}, {"type": "Feature", "geometry": {"type": "Polygon", "coordinates": [[[30.0604499, -1.9497302], [30.0606299, -1.9497302], [30.0606299, -1.9495503], [30.0604499, -1.9495503], [30.0604499, -1.9497302]]]}, "properties": {"kind": "scouting_priority_cell", "priority": 0.6384, "row": 2, "col": 3}}, {"type": "Feature", "geometry": {"type": "Polygon", "coordinates": [[[30.0606299, -1.9497302], [30.0608099, -1.9497302], [30.0608099, -1.9495503], [30.0606299, -1.9495503], [30.0606299, -1.9497302]]]}, "properties": {"kind": "scouting_priority_cell", "priority": 0.398, "row": 2, "col": 4}}, {"type": "Feature", "geometry": {"type": "Polygon", "coordinates": [[[30.0608099, -1.9497302], [30.0609898, -1.9497302], [30.0609898, -1.9495503], [30.0608099, -1.9495503], [30.0608099, -1.9497302]]]}, "properties": {"kind": "scouting_priority_cell", "priority": 0.2442, "row": 2, "col": 5}}, {"type": "Feature", "geometry": {"type": "Polygon", "coordinates": [[[30.0590102, -1.9495503], [30.0591901, -1.9495503], [30.0591901, -1.9493705], [30.0590102, -1.9493705], [30.0590102, -1.9495503]]]}, "properties": {"kind": "scouting_priority_cell", "priority": 0.0614, "row": 3, "col": -5}}, {"type": "Feature", "geometry": {"type": "Polygon", "coordinates": [[[30.0591901, -1.9495503], [30.0593701, -1.9495503], [30.0593701, -1.9493705], [30.0591901, -1.9493705], [30.0591901, -1.9495503]]]}, "properties": {"kind": "scouting_priority_cell", "priority": 0.0849, "row": 3, "col": -4}}, {"type": "Feature", "geometry": {"type": "Polygon", "coordinates": [[[30.0593701, -1.9495503], [30.0595501, -1.9495503], [30.0595501, -1.9493705], [30.0593701, -1.9493705], [30.0593701, -1.9495503]]]}, "properties": {"kind": "scouting_priority_cell", "priority": 0.1162, "row": 3, "col": -3}}, {"type": "Feature", "geometry": {"type": "Polygon", "coordinates": [[[30.0595501, -1.9495503], [30.05973, -1.9495503], [30.05973, -1.9493705], [30.0595501, -1.9493705], [30.0595501, -1.9495503]]]}, "properties": {"kind": "scouting_priority_cell", "priority": 0.1569, "row": 3, "col": -2}}, {"type": "Feature", "geometry": {"type": "Polygon", "coordinates": [[[30.05973, -1.9495503], [30.05991, -1.9495503], [30.05991, -1.9493705], [30.05973, -1.9493705], [30.05973, -1.9495503]]]}, "properties": {"kind": "scouting_priority_cell", "priority": 0.1984, "row": 3, "col": -1}}, {"type": "Feature", "geometry": {"type": "Polygon", "coordinates": [[[30.05991, -1.9495503], [30.06009, -1.9495503], [30.06009, -1.9493705], [30.05991, -1.9493705], [30.05991, -1.9495503]]]}, "properties": {"kind": "scouting_priority_cell", "priority": 0.2809, "row": 3, "col": 0}}, {"type": "Feature", "geometry": {"type": "Polygon", "coordinates": [[[30.06009, -1.9495503], [30.06027, -1.9495503], [30.06027, -1.9493705], [30.06009, -1.9493705], [30.06009, -1.9495503]]]}, "properties": {"kind": "scouting_priority_cell", "priority": 0.3923, "row": 3, "col": 1}}, {"type": "Feature", "geometry": {"type": "Polygon", "coordinates": [[[30.06027, -1.9495503], [30.0604499, -1.9495503], [30.0604499, -1.9493705], [30.06027, -1.9493705], [30.06027, -1.9495503]]]}, "properties": {"kind": "scouting_priority_cell", "priority": 0.4959, "row": 3, "col": 2}}, {"type": "Feature", "geometry": {"type": "Polygon", "coordinates": [[[30.0604499, -1.9495503], [30.0606299, -1.9495503], [30.0606299, -1.9493705], [30.0604499, -1.9493705], [30.0604499, -1.9495503]]]}, "properties": {"kind": "scouting_priority_cell", "priority": 0.4539, "row": 3, "col": 3}}, {"type": "Feature", "geometry": {"type": "Polygon", "coordinates": [[[30.0606299, -1.9495503], [30.0608099, -1.9495503], [30.0608099, -1.9493705], [30.0606299, -1.9493705], [30.0606299, -1.9495503]]]}, "properties": {"kind": "scouting_priority_cell", "priority": 0.3252, "row": 3, "col": 4}}, {"type": "Feature", "geometry": {"type": "Polygon", "coordinates": [[[30.0608099, -1.9495503], [30.0609898, -1.9495503], [30.0609898, -1.9493705], [30.0608099, -1.9493705], [30.0608099, -1.9495503]]]}, "properties": {"kind": "scouting_priority_cell", "priority": 0.2125, "row": 3, "col": 5}}, {"type": "Feature", "geometry": {"type": "Polygon", "coordinates": [[[30.0590102, -1.9493705], [30.0591901, -1.9493705], [30.0591901, -1.9491906], [30.0590102, -1.9491906], [30.0590102, -1.9493705]]]}, "properties": {"kind": "scouting_priority_cell", "priority": 0.0429, "row": 4, "col": -5}}, {"type": "Feature", "geometry": {"type": "Polygon", "coordinates": [[[30.0591901, -1.9493705], [30.0593701, -1.9493705], [30.0593701, -1.9491906], [30.0591901, -1.9491906], [30.0591901, -1.9493705]]]}, "properties": {"kind": "scouting_priority_cell", "priority": 0.0588, "row": 4, "col": -4}}, {"type": "Feature", "geometry": {"type": "Polygon", "coordinates": [[[30.0593701, -1.9493705], [30.0595501, -1.9493705], [30.0595501, -1.9491906], [30.0593701, -1.9491906], [30.0593701, -1.9493705]]]}, "properties": {"kind": "scouting_priority_cell", "priority": 0.0799, "row": 4, "col": -3}}, {"type": "Feature", "geometry": {"type": "Polygon", "coordinates": [[[30.0595501, -1.9493705], [30.05973, -1.9493705], [30.05973, -1.9491906], [30.0595501, -1.9491906], [30.0595501, -1.9493705]]]}, "properties": {"kind": "scouting_priority_cell", "priority": 0.1038, "row": 4, "col": -2}}, {"type": "Feature", "geometry": {"type": "Polygon", "coordinates": [[[30.05973, -1.9493705], [30.05991, -1.9493705], [30.05991, -1.9491906], [30.05973, -1.9491906], [30.05973, -1.9493705]]]}, "properties": {"kind": "scouting_priority_cell", "priority": 0.1416, "row": 4, "col": -1}}, {"type": "Feature", "geometry": {"type": "Polygon", "coordinates": [[[30.05991, -1.9493705], [30.06009, -1.9493705], [30.06009, -1.9491906], [30.05991, -1.9491906], [30.05991, -1.9493705]]]}, "properties": {"kind": "scouting_priority_cell", "priority": 0.196, "row": 4, "col": 0}}, {"type": "Feature", "geometry": {"type": "Polygon", "coordinates": [[[30.06009, -1.9493705], [30.06027, -1.9493705], [30.06027, -1.9491906], [30.06009, -1.9491906], [30.06009, -1.9493705]]]}, "properties": {"kind": "scouting_priority_cell", "priority": 0.2622, "row": 4, "col": 1}}, {"type": "Feature", "geometry": {"type": "Polygon", "coordinates": [[[30.06027, -1.9493705], [30.0604499, -1.9493705], [30.0604499, -1.9491906], [30.06027, -1.9491906], [30.06027, -1.9493705]]]}, "properties": {"kind": "scouting_priority_cell", "priority": 0.3047, "row": 4, "col": 2}}, {"type": "Feature", "geometry": {"type": "Polygon", "coordinates": [[[30.0604499, -1.9493705], [30.0606299, -1.9493705], [30.0606299, -1.9491906], [30.0604499, -1.9491906], [30.0604499, -1.9493705]]]}, "properties": {"kind": "scouting_priority_cell", "priority": 0.2888, "row": 4, "col": 3}}, {"type": "Feature", "geometry": {"type": "Polygon", "coordinates": [[[30.0606299, -1.9493705], [30.0608099, -1.9493705], [30.0608099, -1.9491906], [30.0606299, -1.9491906], [30.0606299, -1.9493705]]]}, "properties": {"kind": "scouting_priority_cell", "priority": 0.2287, "row": 4, "col": 4}}, {"type": "Feature", "geometry": {"type": "Polygon", "coordinates": [[[30.0608099, -1.9493705], [30.0609898, -1.9493705], [30.0609898, -1.9491906], [30.0608099, -1.9491906], [30.0608099, -1.9493705]]]}, "properties": {"kind": "scouting_priority_cell", "priority": 0.1621, "row": 4, "col": 5}}, {"type": "Feature", "geometry": {"type": "Polygon", "coordinates": [[[30.0590102, -1.9491906], [30.0591901, -1.9491906], [30.0591901, -1.9490107], [30.0590102, -1.9490107], [30.0590102, -1.9491906]]]}, "properties": {"kind": "scouting_priority_cell", "priority": 0.0295, "row": 5, "col": -5}}, {"type": "Feature", "geometry": {"type": "Polygon", "coordinates": [[[30.0591901, -1.9491906], [30.0593701, -1.9491906], [30.0593701, -1.9490107], [30.0591901, -1.9490107], [30.0591901, -1.9491906]]]}, "properties": {"kind": "scouting_priority_cell", "priority": 0.0401, "row": 5, "col": -4}}, {"type": "Feature", "geometry": {"type": "Polygon", "coordinates": [[[30.0593701, -1.9491906], [30.0595501, -1.9491906], [30.0595501, -1.9490107], [30.0593701, -1.9490107], [30.0593701, -1.9491906]]]}, "properties": {"kind": "scouting_priority_cell", "priority": 0.0533, "row": 5, "col": -3}}, {"type": "Feature", "geometry": {"type": "Polygon", "coordinates": [[[30.0595501, -1.9491906], [30.05973, -1.9491906], [30.05973, -1.9490107], [30.0595501, -1.9490107], [30.0595501, -1.9491906]]]}, "properties": {"kind": "scouting_priority_cell", "priority": 0.0711, "row": 5, "col": -2}}, {"type": "Feature", "geometry": {"type": "Polygon", "coordinates": [[[30.05973, -1.9491906], [30.05991, -1.9491906], [30.05991, -1.9490107], [30.05973, -1.9490107], [30.05973, -1.9491906]]]}, "properties": {"kind": "scouting_priority_cell", "priority": 0.0979, "row": 5, "col": -1}}, {"type": "Feature", "geometry": {"type": "Polygon", "coordinates": [[[30.05991, -1.9491906], [30.06009, -1.9491906], [30.06009, -1.9490107], [30.05991, -1.9490107], [30.05991, -1.9491906]]]}, "properties": {"kind": "scouting_priority_cell", "priority": 0.1328, "row": 5, "col": 0}}, {"type": "Feature", "geometry": {"type": "Polygon", "coordinates": [[[30.06009, -1.9491906], [30.06027, -1.9491906], [30.06027, -1.9490107], [30.06009, -1.9490107], [30.06009, -1.9491906]]]}, "properties": {"kind": "scouting_priority_cell", "priority": 0.1672, "row": 5, "col": 1}}, {"type": "Feature", "geometry": {"type": "Polygon", "coordinates": [[[30.06027, -1.9491906], [30.0604499, -1.9491906], [30.0604499, -1.9490107], [30.06027, -1.9490107], [30.06027, -1.9491906]]]}, "properties": {"kind": "scouting_priority_cell", "priority": 0.1862, "row": 5, "col": 2}}, {"type": "Feature", "geometry": {"type": "Polygon", "coordinates": [[[30.0604499, -1.9491906], [30.0606299, -1.9491906], [30.0606299, -1.9490107], [30.0604499, -1.9490107], [30.0604499, -1.9491906]]]}, "properties": {"kind": "scouting_priority_cell", "priority": 0.1792, "row": 5, "col": 3}}, {"type": "Feature", "geometry": {"type": "Polygon", "coordinates": [[[30.0606299, -1.9491906], [30.0608099, -1.9491906], [30.0608099, -1.9490107], [30.0606299, -1.9490107], [30.0606299, -1.9491906]]]}, "properties": {"kind": "scouting_priority_cell", "priority": 0.1504, "row": 5, "col": 4}}, {"type": "Feature", "geometry": {"type": "Polygon", "coordinates": [[[30.0608099, -1.9491906], [30.0609898, -1.9491906], [30.0609898, -1.9490107], [30.0608099, -1.9490107], [30.0608099, -1.9491906]]]}, "properties": {"kind": "scouting_priority_cell", "priority": 0.1138, "row": 5, "col": 5}}, {"type": "Feature", "geometry": {"type": "Point", "coordinates": [30.06, -1.95]}, "properties": {"kind": "reported_observation", "present": true, "label": "Reported plant (this observation)", "observation_id": "demo-coffee-001-history", "current": true}}, {"type": "Feature", "geometry": {"type": "Point", "coordinates": [30.0604, -1.9497]}, "properties": {"kind": "reported_observation", "present": true, "label": "Earlier report: rust seen", "observation_id": "prior-1", "current": false}}, {"type": "Feature", "geometry": {"type": "Point", "coordinates": [30.0597, -1.9503]}, "properties": {"kind": "reported_observation", "present": false, "label": "Earlier report: no rust seen", "observation_id": "prior-2", "current": false}}, {"type": "Feature", "geometry": {"type": "Point", "coordinates": [30.06, -1.95]}, "properties": {"kind": "scouting_point", "rank": 1, "label": "Priority point 1", "priority": 0.8462, "scouting_id": "scout_point_1"}}, {"type": "Feature", "geometry": {"type": "Point", "coordinates": [30.0603599, -1.9496403]}, "properties": {"kind": "scouting_point", "rank": 2, "label": "Priority point 2", "priority": 0.7882, "scouting_id": "scout_point_2"}}, {"type": "Feature", "geometry": {"type": "Point", "coordinates": [30.0603599, -1.95]}, "properties": {"kind": "scouting_point", "rank": 3, "label": "Priority point 3", "priority": 0.4796, "scouting_id": "scout_point_3"}}, {"type": "Feature", "geometry": {"type": "Point", "coordinates": [30.0607199, -1.9496403]}, "properties": {"kind": "scouting_point", "rank": 4, "label": "Priority point 4", "priority": 0.398, "scouting_id": "scout_point_4"}}, {"type": "Feature", "geometry": {"type": "Point", "coordinates": [30.06, -1.9496403]}, "properties": {"kind": "scouting_point", "rank": 5, "label": "Priority point 5", "priority": 0.3811, "scouting_id": "scout_point_5"}}]}
